LON,LAT,NUMBER,STREET,UNIT,POSTCODE,ID
-73.9395464,40.7253316,608,MORGAN AVENUE,,11222,3087169
-73.9233025,40.6922126,962,BUSHWICK AVENUE,,11221,3099946
-73.9185621,40.7003812,309,HARMAN STREET,,11237,3099357
-73.9239209,40.6937636,1115,GREENE AVENUE,,11221,3099564
-73.9181524,40.6996052,1341,GREENE AVENUE,,11237,3099731
-73.916312,40.7014682,1415,GREENE AVENUE,,11237,3099785
-73.9372884,40.7042926,185,MOORE STREET,,11206,3094014
-73.9385968,40.7044174,3,BUSHWICK COURT,,11206,3094030
-73.9415111,40.7037747,100,MOORE STREET,,11206,3094128
-73.9609142,40.7045847,135,RODNEY STREET,,11211,3076537
-73.9552551,40.7352618,1067,MANHATTAN AVENUE,,11222,3082465
-73.9395591,40.7093059,229,SCHOLES STREET,,11206,3092816
-73.9459476,40.7115733,663,GRAND STREET,,11211,3089845
-73.9463964,40.7115305,647,GRAND STREET,,11211,3089850
-73.9409069,40.715768,53,MASPETH AVENUE,,11211,3091204
-73.9366236,40.7146106,985,METROPOLITAN AVENUE,,11211,3091361
-73.9500058,40.7109387,538,GRAND STREET,,11206,3089995
-73.9434301,40.7077362,167,GRAHAM AVENUE,,11206,3093191
-73.941275,40.7134835,43,BUSHWICK AVENUE,,11211,3091529
-73.9406128,40.711373,116,BUSHWICK AVENUE,,11206,3090192
-73.9342202,40.690467,845,GREENE AVENUE,,11221,3054653
-73.9727045,40.6842732,15,ATLANTIC COMMONS,,11217,3072760
-73.9450246,40.6706728,264,BROOKLYN AVENUE,A,11213,3039790
-73.9468152,40.6712585,956,ST JOHNS PLACE,,11213,3039818
-73.9440688,40.6705432,977,LINCOLN PLACE,,11213,3039863
-73.9403131,40.6709287,1148,ST JOHNS PLACE,,11213,3039916
-73.9499873,40.6617462,379,LINCOLN ROAD,,11225,3043227
-73.9450539,40.664938,594,MONTGOMERY STREET,,11225,3042322
-73.9380918,40.6763715,1507,DEAN STREET,,11213,3043616
-73.9382316,40.6763784,1503,DEAN STREET,,11213,3043618
-73.9223975,40.6760376,1932,PACIFIC STREET,,11233,3043794
-73.9565426,40.6633692,160,EMPIRE BOULEVARD,,11225,3042467
-73.9596322,40.6619659,45,LEFFERTS AVENUE,,11225,3042658
-73.9218388,40.678762,1932,FULTON STREET,,11233,3059713
-73.9293911,40.6940311,1118,DEKALB AVENUE,,11221,3097894
-73.9174727,40.6919967,115,WOODBINE STREET,,11221,3101849
-73.9250987,40.7064165,1160,FLUSHING AVENUE,,11237,3095468
-73.8882116,40.6820422,88,WARWICK STREET,,11207,3117538
-73.8836837,40.6791083,274,LINWOOD STREET,,11208,3118888
-73.8773737,40.6751469,180,MILFORD STREET,,11208,3120516
-73.8887191,40.6718036,563,BELMONT AVENUE,,11207,3120618
-73.8953559,40.6832681,110,VERMONT AVENUE,,11207,3116542
-73.8791487,40.6746725,180,ATKINS AVENUE,,11208,3120443
-73.889239,40.6828238,230,SUNNYSIDE AVENUE,,11207,3116930
-73.8890258,40.6823139,351,JAMAICA AVENUE,,11207,3116941
-73.8869736,40.6829851,426,JAMAICA AVENUE,,11207,3117015
-73.8927356,40.6631659,650,NEW JERSEY AVENUE,,11207,3115549
-73.8970475,40.6605604,614,WILLIAMS AVENUE,,11207,3115955
-73.8796869,40.6834015,108,NORWOOD AVENUE,,11208,3118020
-73.8794246,40.6817231,3133,ARLINGTON AVENUE,,11208,3118048
-73.8910838,40.6787846,146,HENDRIX STREET,,11207,3118141
-73.8830275,40.6843084,24,SHEPHERD AVENUE,,11208,3117157
-73.8920784,40.680289,9,VAN SICLEN AVENUE,,11207,3117380
-73.8891934,40.6641636,670,MILLER AVENUE,,11207,3115098
-73.8907092,40.6783483,169,HENDRIX STREET,,11207,3118187
-73.8894965,40.6742498,561,GLENMORE AVENUE,,11207,3119695
-73.8887633,40.6745949,263,SCHENCK AVENUE,,11207,3119700
-73.9160931,40.6904961,564,EVERGREEN AVENUE,,11221,3102654
-73.9156423,40.6910704,1216,PUTNAM AVENUE,,11221,3102688
-73.9236151,40.7065698,408,JEFFERSON STREET,,11237,3095830
-73.9519702,40.723805,917,LORIMER STREET,,11222,3085456
-73.9518205,40.7235513,905,LORIMER STREET,,11222,3085461
-73.9143769,40.70308,222,ST NICHOLAS AVENUE,,11237,3100249
-73.9150585,40.7003743,321,MENAHAN STREET,,11237,3100595
-73.9112631,40.70062,1593,GATES AVENUE,,11237,3101514
-73.9141517,40.6965494,589,KNICKERBOCKER AVENUE,,11237,3101623
-73.9144176,40.6967093,577,KNICKERBOCKER AVENUE,,11237,3101628
-73.9381499,40.6996225,24,PARK STREET,,11206,3094562
-73.9611056,40.7207181,101,KENT AVENUE,,11249,3079166
-73.9517267,40.7071973,415,SOUTH 5 STREET,,11211,3081897
-73.9548394,40.7074848,373,BROADWAY,,11211,3082040
-73.9458517,40.6598587,449,RUTLAND ROAD,,11203,3144037
-73.9462826,40.6598041,435,RUTLAND ROAD,,11203,3144042
-73.9462596,40.6617192,498,EAST NEW YORK AVENUE,A,11225,3143501
-73.9504364,40.6606767,1107,NOSTRAND AVENUE,,11225,3143648
-73.9510779,40.6592435,292,RUTLAND ROAD,,11225,3153787
-73.9785473,40.6527039,317,VANDERBILT STREET,,11218,3162153
-73.9752062,40.6548301,200,SEELEY STREET,,11218,3162226
-73.9351746,40.6583353,158,EAST 46 STREET,,11203,3144798
-73.9548887,40.661159,232,LINCOLN ROAD,,11225,3153014
-74.0217414,40.6420424,261,61 STREET,,11220,3186754
-74.0225882,40.642556,225,61 STREET,,11220,3186769
-74.0204012,40.6412427,327,61 STREET,,11220,3186828
-73.8913461,40.6775288,117,VAN SICLEN AVENUE,,11207,3118542
-73.9501481,40.6588005,373,FENIMORE STREET,,11225,3144239
-73.9597202,40.6573647,15,HAWTHORNE STREET,,11225,3153877
-73.8794794,40.6483,160,SCHROEDERS AVENUE,,11239,3133256
-73.8752298,40.6680782,442,MILFORD STREET,,11208,3133455
-73.8745968,40.6686566,704,LOGAN STREET,,11208,3133500
-73.9847436,40.703818,32,BRIDGE STREET,,11201,3000042
-73.8770675,40.6608196,921,ELTON STREET,,11208,3132595
-73.8904785,40.6570826,833,SHEFFIELD AVENUE,,11207,3132265
-73.8861029,40.6786686,167,ASHFORD STREET,,11207,3118768
-73.8703831,40.6762617,482,CRESCENT STREET,,11208,3128401
-73.9076046,40.6832835,1468,BUSHWICK AVENUE,,11207,3106578
-73.8766075,40.6693027,369,MONTAUK AVENUE,,11208,3122895
-73.9077685,40.6895606,184,SCHAEFER STREET,,11207,3105535
-74.0145246,40.6374084,602,61 STREET,,11220,3187293
-73.9447597,40.7262504,165,RUSSELL STREET,,11222,3085965
-73.9436436,40.7271728,228,NORTH HENRY STREET,A,11222,3086140
-73.9442863,40.7173178,184,WITHERS STREET,,11211,3088448
-73.9469874,40.7206193,127,NEWTON STREET,,11222,3087687
-73.9505,40.7265741,213,ECKFORD STREET,,11222,3085012
-73.9490416,40.7265586,114,MC GUINNESS BOULEVARD,,11222,3085121
-73.9526136,40.7255029,988,LORIMER STREET,,11222,3084925
-73.9524409,40.7098551,377,SOUTH 2 STREET,,11211,3081050
-73.9742592,40.6895495,2,SOUTH OXFORD STREET,B,11217,3074770
-73.9419055,40.6810822,112,MAC DONOUGH STREET,,11216,3067028
-73.9420527,40.680103,1481,FULTON STREET,,11216,3067172
-73.9574055,40.7001086,706,BEDFORD AVENUE,,11206,3077769
-73.9563924,40.7035992,173,PENN STREET,,11211,3077200
-73.9597431,40.7011254,76,PENN STREET,,11249,3077315
-73.9556508,40.7037816,208,PENN STREET,,11211,3077452
-73.9539553,40.704201,253,RUTLEDGE STREET,,11211,3077550
-73.9726588,40.6860427,17,GREENE AVENUE,,11238,3075377
-73.9385647,40.6839885,437,HANCOCK STREET,,11221,3065888
-73.9484714,40.6825886,184,HANCOCK STREET,,11216,3066034
-73.9595741,40.7335023,62,FREEMAN STREET,,11222,3082745
-73.9588279,40.7036821,144,HOOPER STREET,,11211,3076854
-73.9555005,40.7058157,252,HOOPER STREET,,11211,3076951
-73.9723995,40.6949893,94,ADELPHI STREET,,11205,3073718
-73.9704094,40.6951813,82,VANDERBILT AVENUE,A,11205,3073841
-73.965426,40.7133094,64,SOUTH 3 STREET,,11249,3081368
-73.9642823,40.7125269,329,BERRY STREET,,11249,3081431
-73.9587581,40.714035,18,FILLMORE PLACE,,11211,3080436
-73.9562186,40.7132226,40,HOPE STREET,,11211,3080496
-73.9539159,40.7118073,411,GRAND STREET,,11211,3080540
-73.9582034,40.7191795,125,NORTH 8 STREET,,11249,3079034
-73.95859,40.7296613,60,GREENPOINT AVENUE,,11222,3083783
-73.9557708,40.7299274,124,GREENPOINT AVENUE,,11222,3083828
-73.9605135,40.7154903,197,METROPOLITAN AVENUE,,11249,3080045
-73.9611404,40.7154424,184,METROPOLITAN AVENUE,,11249,3080122
-73.9592249,40.7145914,662,DRIGGS AVENUE,,11211,3080147
-73.9562325,40.7140161,356,METROPOLITAN AVENUE,,11211,3080193
-73.9431823,40.7091746,163,SCHOLES STREET,,11206,3092606
-73.9418185,40.7108708,196,MAUJER STREET,,11206,3092620
-73.9758076,40.6814811,202,FLATBUSH AVENUE,,11217,3023643
-73.9755303,40.6810993,216,FLATBUSH AVENUE,,11217,3023655
-73.9808928,40.6780499,692,DE GRAW STREET,,11217,3024817
-73.9754086,40.6807516,480,BERGEN STREET,,11217,3023773
-73.9635671,40.6815287,298,ST JAMES PLACE,,11238,3073024
-73.9610879,40.681513,57,LEFFERTS PLACE,,11238,3073086
-73.9538548,40.6802561,43,BREVOORT PLACE,,11216,3073218
-73.9360674,40.7122377,324,MAUJER STREET,,11206,3092414
-73.9510333,40.734006,244,GREEN STREET,,11222,3083031
-73.9701307,40.6903982,239,CLERMONT AVENUE,,11205,3074387
-73.9769512,40.6882222,56,FT GREENE PLACE,,11217,3074530
-73.9771564,40.6892944,16,FT GREENE PLACE,,11217,3074575
-73.9380951,40.7003337,37,BEAVER STREET,,11206,3094531
-73.9583211,40.7100969,242,SOUTH 4 STREET,,11211,3081765
-73.957978,40.7085623,295,BROADWAY,,11211,3081984
-73.9540424,40.7065092,9,HARRISON AVENUE,,11211,3077009
-73.9417105,40.6731008,201,KINGSTON AVENUE,,11213,3038536
-73.9584766,40.7340235,82,FREEMAN STREET,,11222,3082730
-73.9316132,40.66996,250,UTICA AVENUE,,11213,3045470
-73.9848692,40.6641199,362,14 STREET,,11215,3029550
-73.9812586,40.6694202,433,6 STREET,,11215,3026827
-73.9873672,40.6656083,287,14 STREET,,11215,3029185
-73.9816626,40.669347,438,6 STREET,,11215,3027091
-73.9885558,40.6718423,236,7 STREET,,11215,3027185
-73.9898277,40.671892,169,8 STREET,,11215,3027231
-73.9944851,40.6679564,72,15 STREET,,11215,3029616
-73.9879289,40.6641614,255,16 STREET,,11215,3029819
-73.9755799,40.6675118,593,5 STREET,,11215,3031655
-73.9773129,40.6677642,511,8 AVENUE,,11215,3031715
-73.9171838,40.6771201,21,LOUIS PLACE,,11233,3052672
-73.9382746,40.6959975,331,VERNON AVENUE,,11206,3053318
-73.9338336,40.6709939,242,SCHENECTADY AVENUE,,11213,3045109
-73.9595492,40.6793644,1031,PACIFIC STREET,,11238,3033929
-73.9608993,40.6796527,993,PACIFIC STREET,,11238,3033940
-73.9307086,40.6683851,1136,EASTERN PARKWAY,,11213,3046044
-73.9231793,40.6675021,1969,UNION STREET,,11233,3046107
-73.9360941,40.6679586,1598,UNION STREET,,11213,3046207
-73.9462432,40.7127885,204,AINSLIE STREET,,11211,3089600
-73.9559259,40.7308845,129,KENT STREET,,11222,3083512
-73.9467648,40.6602559,418,MIDWOOD STREET,,11203,3144019
-73.8674442,40.6620061,696,COZINE AVENUE,,11208,3134773
-73.890463,40.6614877,735,VERMONT STREET,,11207,3130870
-73.8772584,40.6669941,471,BERRIMAN STREET,,11208,3133375
-73.8755384,40.6670144,1017,HEGEMAN AVENUE,,11208,3133413
-73.9201364,40.6893115,19,WOODBINE STREET,,11221,3101766
-73.9291348,40.7015466,183,JEFFERSON STREET,,11206,3095345
-73.9259635,40.7047607,315,JEFFERSON STREET,,11237,3095446
-73.9320793,40.6984674,53,TROUTMAN STREET,,11206,3095575
-73.9256648,40.7011738,1112,WILLOUGHBY AVENUE,,11237,3096687
-73.8860178,40.6821256,123,CLEVELAND STREET,,11208,3117654
-73.8858827,40.6778066,2935,ATLANTIC AVENUE,,11207,3118804
-73.8842869,40.6790726,187,ELTON STREET,,11208,3118855
-73.8960257,40.6567821,766,WILLIAMS AVENUE,,11207,3116476
-73.9476476,40.6576132,383,WINTHROP STREET,,11225,3144580
-73.955267,40.6606479,165,MAPLE STREET,,11225,3153053
-73.8853771,40.6633376,699,SCHENCK AVENUE,,11207,3131213
-73.8904121,40.6623872,652,WYONA STREET,,11207,3130827
-73.8900635,40.6609526,763,VERMONT STREET,,11207,3130856
-74.0020907,40.6782832,671,HENRY STREET,,11231,3006881
-73.9572727,40.6732368,640,STERLING PLACE,,11238,3036321
-73.9483736,40.6761567,1127,BERGEN STREET,,11216,3037460
-73.9318793,40.6828656,333,STUYVESANT AVENUE,,11233,3058268
-73.9587517,40.685402,219,GATES AVENUE,,11238,3071448
-73.9652026,40.6891027,22,ST JAMES PLACE,,11205,3069852
-73.9661883,40.6880589,252,LAFAYETTE AVENUE,,11238,3070027
-73.9492853,40.6950618,574,MARCY AVENUE,,11206,3060871
-73.9349054,40.6964766,8,STUYVESANT AVENUE,,11206,3053338
-73.9357194,40.6955362,817,WILLOUGHBY AVENUE,,11206,3053425
-73.8811871,40.6751765,388,SHEPHERD AVENUE,,11208,3120371
-73.8821211,40.6819442,123,SHEPHERD AVENUE,,11208,3117881
-73.8816977,40.6828809,100,HIGHLAND PLACE,,11208,3117909
-73.8790894,40.6807987,216,NORWOOD AVENUE,,11208,3119134
-73.8789902,40.6804597,232,NORWOOD AVENUE,,11208,3119140
-73.8802343,40.6854318,34,NORWOOD AVENUE,,11208,3116980
-73.8973997,40.6581897,674,HINSDALE STREET,,11207,3116280
-73.8796786,40.6832811,114,NORWOOD AVENUE,,11208,3118022
-73.8789015,40.6785204,37,MONTAUK AVENUE,,11208,3119573
-74.0113367,40.6370236,5911,7 AVENUE,,11220,3021136
-73.98973,40.659007,346,21 STREET,,11215,3022541
-73.9800554,40.6756001,681,PRESIDENT STREET,,11215,3025314
-74.0028492,40.6505048,544,39 STREET,,11232,3022840
-73.9994797,40.6480877,3915,7 AVENUE,A,11232,3022936
-73.9479241,40.6769037,1245,DEAN STREET,,11216,3037080
-73.9431487,40.6771469,1418,PACIFIC STREET,,11216,3037164
-73.9798027,40.6675935,492,7 STREET,,11215,3031865
-73.9313443,40.6699678,1373,LINCOLN PLACE,,11213,3045471
-73.9415015,40.6665372,1416,CARROLL STREET,,11213,3041623
-73.9799995,40.6585056,28,FULLER PLACE,,11215,3033572
-73.9494054,40.7251827,166,ECKFORD STREET,,11222,3085715
-73.9486047,40.7263491,148,NORMAN AVENUE,,11222,3085733
-73.9464241,40.7263897,57,JEWEL STREET,,11222,3085833
-73.9157748,40.6981158,286,GROVE STREET,,11237,3101109
-73.9192608,40.7059848,92,ST NICHOLAS AVENUE,,11237,3097211
-73.9192736,40.7056266,1007,HART STREET,,11237,3097218
-73.9165337,40.7043373,164,ST NICHOLAS AVENUE,,11237,3099038
-73.924301,40.6953878,60,HIMROD STREET,,11221,3099182
-73.95473,40.7265268,67,MESEROLE AVENUE,,11222,3084481
-73.9526492,40.7282269,184,CALYER STREET,,11222,3084538
-73.9956481,40.6702024,58,13 STREET,,11215,3028967
-73.9934691,40.6690079,538,3 AVENUE,,11215,3028986
-73.9795814,40.6794337,423,BUTLER STREET,,11217,3024210
-73.973961,40.6778603,138,PARK PLACE,,11217,3024319
-73.9831478,40.6595212,448,PROSPECT AVENUE,,11215,3021345
-73.9575838,40.6735495,637,STERLING PLACE,,11238,3036072
-73.9684184,40.6755414,284,STERLING PLACE,,11238,3036113
-73.964606,40.6747509,410,STERLING PLACE,,11238,3036196
-73.9579703,40.6732481,626,STERLING PLACE,,11238,3036314
-73.9402812,40.6736523,1096,PROSPECT PLACE,,11213,3038562
-73.9403659,40.6730245,1123,PARK PLACE,,11213,3038604
-73.9534676,40.6734957,736,PARK PLACE,,11216,3038705
-73.9401674,40.676224,1456,DEAN STREET,,11213,3037641
-73.946621,40.6722026,966,STERLING PLACE,,11213,3039292
-73.9403561,40.6712421,1145,ST JOHNS PLACE,,11213,3039443
-73.9769053,40.6689784,515,4 STREET,,11215,3031491
-73.9812238,40.683223,311,BERGEN STREET,,11217,3002215
-73.9696892,40.6864453,380,CLERMONT AVENUE,,11238,3075508
-73.9499991,40.6839155,272,PUTNAM AVENUE,,11216,3065172
-73.9498827,40.6839288,276,PUTNAM AVENUE,,11216,3065174
-73.9490229,40.6835345,213,JEFFERSON AVENUE,,11216,3065236
-73.9494592,40.6834729,201,JEFFERSON AVENUE,,11216,3065242
-73.9417859,40.6793448,351,HERKIMER STREET,,11216,3067457
-73.9456583,40.6784212,1345,ATLANTIC AVENUE,,11216,3067714
-73.9464371,40.6843122,366,PUTNAM AVENUE,,11216,3065260
-73.9430943,40.6842147,369,JEFFERSON AVENUE,,11221,3065405
-73.9529766,40.6823307,69,HANCOCK STREET,,11216,3065574
-73.949967,40.6805375,1285,FULTON STREET,,11216,3066670
-73.9523649,40.6853972,163,MONROE STREET,A,11216,3064167
-73.919834,40.696712,165,BLEECKER STREET,,11221,3100085
-73.916968,40.700367,236,IRVING AVENUE,,11237,3100138
-73.9170114,40.6984591,229,MENAHAN STREET,,11237,3100508
-73.929134,40.695377,770,BUSHWICK AVENUE,,11221,3097459
-73.9372577,40.7010239,33,GARDEN STREET,,11206,3094696
-73.9082901,40.6961596,1468,JEFFERSON AVENUE,,11237,3103758
-73.9255083,40.7037266,288,TROUTMAN STREET,,11237,3096098
-73.8794488,40.6568364,1065,BARBEY STREET,,11207,3133146
-73.98463,40.6885637,227,SCHERMERHORN STREET,,11201,3000990
-73.9979178,40.6875514,400,HENRY STREET,,11201,3004537
-73.9972226,40.6878018,178,WARREN STREET,,11201,3004578
-73.9676768,40.7109244,1,DUNHAM PLACE,,11249,3082121
-73.955369,40.7360359,1095,MANHATTAN AVENUE,,11222,3082339
-73.9528414,40.7338318,210,GREEN STREET,,11222,3082994
-73.9560627,40.7328023,134,HURON STREET,,11222,3083117
-73.9568807,40.7320114,88,INDIA STREET,,11222,3083292
-73.9700494,40.6899787,253,CLERMONT AVENUE,,11205,3074380
-73.9794941,40.6889232,10,METROTECH CENTER,,11201,3074436
-73.9782554,40.688381,229,ASHLAND PLACE,,11217,3074466
-73.9402507,40.7009918,794,FLUSHING AVENUE,,11206,3094473
-73.8834727,40.6668209,620,ASHFORD STREET,,11207,3123240
-73.8826372,40.6655091,669,ASHFORD STREET,,11207,3131397
-73.8744133,40.6762465,958,GLENMORE AVENUE,,11208,3128261
-73.9792786,40.6540705,70,TERRACE PLACE,,11218,3162003
-73.8638318,40.6651196,768,SHERIDAN AVENUE,,11208,3134532
-73.9718885,40.6924737,166,ADELPHI STREET,,11205,3074092
-73.873106,40.6775074,1,DOSCHER STREET,,11208,3127833
-73.9542777,40.7231929,75,NORTH 15 STREET,,11222,3085385
-73.9532602,40.7247537,108,GUERNSEY STREET,,11222,3085421
-73.937616,40.7057026,221,MC KIBBIN STREET,,11206,3093764
-73.8979635,40.6580359,681,SNEDIKER AVENUE,,11207,3116218
-73.8805238,40.6554704,1073,HENDRIX STREET,,11207,3133022
-73.8853051,40.6509005,1218,PENNSYLVANIA AVENUE,,11207,3133196
-73.892315,40.6558604,427,STANLEY AVENUE,,11207,3132237
-73.8935356,40.6592652,487,HEGEMAN AVENUE,,11207,3130497
-73.8928354,40.6595624,507,HEGEMAN AVENUE,,11207,3130568
-73.9924669,40.6945012,68,CLINTON STREET,,11201,3002940
-73.8689646,40.6698307,1326,DUMONT AVENUE,,11208,3133626
-73.9491596,40.7117936,46,POWERS STREET,,11211,3089753
-73.933411,40.6698019,1292,LINCOLN PLACE,,11213,3045739
-74.0128964,40.6359329,6120,7 AVENUE,,11220,3187332
-73.8712981,40.6890016,53,AUTUMN AVENUE,,11208,3124108
-73.8697227,40.6882917,102,NICHOLS AVENUE,,11208,3124147
-73.896961,40.6712965,226,SHEFFIELD AVENUE,,11207,3112890
-73.8920435,40.6714254,312,BRADFORD STREET,,11207,3112959
-73.9019745,40.672402,241,GLENMORE AVENUE,,11207,3112169
-73.8943129,40.6646095,620,LIVONIA AVENUE,,11207,3114924
-73.8901573,40.664217,594,BRADFORD STREET,,11207,3115063
-73.8831802,40.6647617,735,WARWICK STREET,,11207,3131338
-73.8928332,40.6602986,687,SHEFFIELD AVENUE,,11207,3130644
-73.9548534,40.6893699,500,LAFAYETTE AVENUE,,11205,3062611
-73.9575609,40.6551205,67,CLARKSON AVENUE,,11226,3154382
-73.8728377,40.666776,793,LOGAN STREET,,11208,3133934
-73.8705948,40.6848275,222,AUTUMN AVENUE,,11208,3125523
-73.8732938,40.6843794,95,PINE STREET,,11208,3125356
-73.894621,40.6802989,44,SUNNYSIDE AVENUE,,11207,3107102
-73.8731845,40.6801843,325,EUCLID AVENUE,,11208,3126594
-73.8844339,40.6673202,638,WARWICK STREET,,11207,3123183
-73.9074057,40.6891617,1207,DECATUR STREET,,11207,3105561
-73.8685134,40.6801532,400,LINCOLN AVENUE,,11208,3127332
-73.8685523,40.6802103,204,MC KINLEY AVENUE,,11208,3127333
-73.8687473,40.6757213,2798,PITKIN AVENUE,,11208,3128962
-73.8786793,40.6587054,1005,WARWICK STREET,,11207,3132797
-73.9476969,40.6587177,452,FENIMORE STREET,,11225,3144423
-73.9493645,40.6580159,329,HAWTHORNE STREET,,11225,3144445
-73.9477515,40.6578441,380,HAWTHORNE STREET,,11225,3144577
-73.8695187,40.6713715,1280,BLAKE AVENUE,,11208,3130049
-73.984054,40.7034463,236,PLYMOUTH STREET,,11201,3000121
-73.8994278,40.6675712,311,HINSDALE STREET,,11207,3113494
-73.8664191,40.6769843,227,SHERIDAN AVENUE,,11208,3128486
-73.8841428,40.6707991,459,ASHFORD STREET,,11207,3121819
-73.8945641,40.6788232,21,WYONA STREET,,11207,3111278
-73.8666151,40.6726737,672,LINCOLN AVENUE,,11208,3129835
-73.8675646,40.6854751,225,GRANT AVENUE,,11208,3125689
-73.9435383,40.6898928,48,VAN BUREN STREET,,11221,3063066
-73.9677787,40.6775707,257,PROSPECT PLACE,,11238,3035231
-73.963839,40.6774228,686,WASHINGTON AVENUE,A,11238,3035260
-73.9604438,40.6766985,434,ST MARKS AVENUE,,11238,3035346
-73.9563859,40.6758691,550,ST MARKS AVENUE,,11238,3035397
-73.9778393,40.6582162,206,WINDSOR PLACE,,11215,3033664
-73.9760693,40.6711338,491,1 STREET,,11215,3031104
-73.9782138,40.6705389,503,3 STREET,,11215,3031390
-73.9736391,40.6688709,660,2 STREET,,11215,3031423
-73.9803666,40.6664905,469,9 STREET,,11215,3032039
-73.9912146,40.6583441,311,23 STREET,,11215,3022706
-73.9796959,40.6762742,751,UNION STREET,,11217,3025102
-73.9768601,40.6751674,817,UNION STREET,,11217,3025170
-74.0021941,40.6503708,565,39 STREET,,11232,3022762
-74.0042233,40.6507715,3919,5 AVENUE,,11232,3022821
-74.0009232,40.6493171,632,39 STREET,,11232,3022888
-74.0003785,40.6483447,673,40 STREET,,11232,3022909
-73.9419018,40.6765813,1411,DEAN STREET,,11216,3037189
-73.9413518,40.6769181,85,KINGSTON AVENUE,,11213,3037221
-73.9796757,40.6799434,650,BALTIC STREET,,11217,3024226
-73.9840197,40.6591826,454,17 STREET,,11215,3021702
-73.9899531,40.6627481,276,17 STREET,,11215,3021540
-73.9336084,40.6947778,430,HART STREET,,11221,3053673
-73.9317358,40.6948528,1058,BROADWAY,,11221,3053685
-73.9612064,40.6881065,73,CLIFTON PLACE,,11238,3070182
-73.9588982,40.6888924,412,LAFAYETTE AVENUE,,11238,3070212
-73.9630562,40.6876418,44,CLIFTON PLACE,,11238,3070340
-73.9441066,40.6943092,632,WILLOUGHBY AVENUE,,11206,3061610
-73.9415331,40.6941457,239,HART STREET,,11206,3061695
-73.9668597,40.6918477,228,WASHINGTON AVENUE,,11205,3069017
-73.9241187,40.6841607,681,MACON STREET,,11233,3058076
-73.9359062,40.6825249,374,MACON STREET,,11233,3058134
-73.9361004,40.6820432,255,MAC DONOUGH STREET,,11233,3058160
-73.9815011,40.6632393,1306,8 AVENUE,,11215,3032700
-73.9819797,40.6621303,409,15 STREET,,11215,3032812
-73.937728,40.6672071,1532,PRESIDENT STREET,,11213,3046357
-73.9385644,40.6666674,1471,CARROLL STREET,,11213,3046379
-73.9733427,40.6745694,223,BERKELEY PLACE,,11217,3030476
-73.9740909,40.6746024,200,BERKELEY PLACE,,11217,3030528
-73.9731884,40.6742565,236,BERKELEY PLACE,,11217,3030536
-73.9748598,40.673567,847,PRESIDENT STREET,,11215,3030642
-73.9187377,40.6867385,972,JEFFERSON AVENUE,,11221,3049311
-73.9211043,40.6849767,826,HALSEY STREET,,11233,3049493
-73.9344795,40.6643686,920,MONTGOMERY STREET,,11213,3046990
-73.9663447,40.676537,136,UNDERHILL AVENUE,,11238,3035565
-73.9635652,40.6759506,738,WASHINGTON AVENUE,,11238,3035628
-73.9585653,40.6747172,585,PARK PLACE,,11238,3035785
-73.9444632,40.676464,98,BROOKLYN AVENUE,,11216,3037498
-73.9417345,40.6758309,116,KINGSTON AVENUE,,11216,3037570
-73.9532918,40.6712516,154,ROGERS AVENUE,,11216,3039581
-73.9683956,40.6764952,288,PARK PLACE,,11238,3035855
-73.9572779,40.6741325,630,PARK PLACE,,11238,3036057
-73.9466938,40.6722077,964,STERLING PLACE,,11213,3039291
-73.9415215,40.671936,1120,STERLING PLACE,,11213,3039402
-73.9540128,40.6766027,995,BERGEN STREET,,11216,3037331
-73.9318608,40.6827778,337,STUYVESANT AVENUE,,11233,3058266
-73.9342401,40.681953,310,MAC DONOUGH STREET,,11233,3058500
-73.9251933,40.6889868,964,GATES AVENUE,,11221,3055852
-73.8702721,40.6804456,133,WELDON STREET,,11208,3126821
-73.8693747,40.6743574,1074,BELMONT AVENUE,,11208,3129374
-73.8702795,40.6795322,150,MC KINLEY AVENUE,,11208,3126877
-73.8666901,40.6744269,605,LINCOLN AVENUE,,11208,3129470
-73.8671199,40.6820769,352,GRANT AVENUE,,11208,3127122
-73.8839453,40.6730577,473,CLEVELAND STREET,,11208,3120773
-73.8772939,40.6709437,312,MONTAUK AVENUE,,11208,3122157
-73.9067292,40.6885857,171,COOPER STREET,,11207,3105883
-73.9601139,40.7317037,14,INDIA STREET,,11222,3083250
-73.9178837,40.6857078,34,SARATOGA AVENUE,,11233,3049424
-73.8745965,40.6857784,117,EUCLID AVENUE,,11208,3124589
-73.8889797,40.6644139,659,MILLER AVENUE,,11207,3123462
-73.8782926,40.6743646,2546,PITKIN AVENUE,,11208,3121006
-73.8855658,40.668103,540,JEROME STREET,,11207,3122448
-73.8693751,40.6868721,160,NICHOLS AVENUE,,11208,3124921
-73.8725741,40.6891544,32,HEMLOCK STREET,,11208,3123917
-73.8724048,40.6872595,313,ETNA STREET,,11208,3123946
-73.8827041,40.6716316,467,ELTON STREET,,11208,3121320
-73.8814847,40.6723119,468,ESSEX STREET,,11208,3121373
-73.9517034,40.6594623,273,RUTLAND ROAD,,11225,3153580
-73.9594528,40.6582794,85,FENIMORE STREET,,11225,3153670
-74.0016019,40.648178,641,41 STREET,A,11232,3023136
-73.9913909,40.6717748,175,9 STREET,A,11215,3027449
-73.989812,40.6599478,330,20 STREET,,11215,3022373
-73.988937,40.658958,584,7 AVENUE,,11215,3022397
-73.9822843,40.677256,677,UNION STREET,,11217,3025021
-73.9774016,40.6776212,62,ST JOHNS PLACE,,11217,3024672
-73.9799103,40.65427,609,20 STREET,,11218,3022261
-74.0098853,40.6358841,769,60 STREET,,11220,3021181
-73.9864185,40.6614812,362,PROSPECT AVENUE,,11215,3021253
-73.9561792,40.6989618,464,FLUSHING AVENUE,,11205,3060093
-73.950999,40.6942662,24,VERNON AVENUE,,11206,3061079
-73.95855,40.6944144,633,MYRTLE AVENUE,,11205,3068830
-73.9574475,40.6945425,657,MYRTLE AVENUE,,11205,3068877
-73.9282624,40.6896733,759,QUINCY STREET,,11221,3055412
-73.9255696,40.6899817,815,QUINCY STREET,,11221,3055482
-73.9338855,40.6852764,607,JEFFERSON AVENUE,,11221,3056668
-73.9775735,40.6668093,557,7 STREET,,11215,3031844
-73.9800392,40.667159,453,8 STREET,,11215,3031912
-73.9284048,40.669723,262,ROCHESTER AVENUE,,11213,3045529
-73.9570873,40.6841094,49,MADISON STREET,,11238,3072108
-73.9552972,40.6840499,96,MADISON STREET,,11216,3072242
-73.9634728,40.6858454,38,CAMBRIDGE PLACE,,11238,3070919
-73.9403392,40.6835221,386,HANCOCK STREET,,11216,3066273
-73.9525832,40.6861277,365,GATES AVENUE,,11216,3063872
-73.9484377,40.686639,465,GATES AVENUE,A,11216,3063951
-73.9424203,40.6877728,464,QUINCY STREET,,11221,3064068
-73.9437623,40.6791935,286,HERKIMER STREET,,11216,3067731
-73.9436628,40.6846282,440,PUTNAM AVENUE,,11221,3065347
-73.9415476,40.6849051,498,PUTNAM AVENUE,,11221,3065376
-73.9439395,40.6841725,389,TOMPKINS AVENUE,A,11221,3065419
-73.9535957,40.6825685,1191,BEDFORD AVENUE,,11216,3065498
-73.9519306,40.6829544,140,JEFFERSON AVENUE,,11216,3065520
-73.9485161,40.6828452,187,HANCOCK STREET,,11216,3065652
-73.9477825,40.6811554,2,VERONA PLACE,,11216,3066698
-73.9389486,40.6648724,783,MONTGOMERY STREET,,11213,3046788
-73.9452836,40.6691932,698,EASTERN PARKWAY,A,11213,3040481
-73.9820976,40.6644506,425,13 STREET,,11215,3032584
-73.9332704,40.6738967,149,SCHENECTADY AVENUE,,11213,3044183
-73.9234651,40.6736238,1360,ST MARKS AVENUE,,11233,3044346
-73.9355294,40.6727477,1263,PARK PLACE,,11213,3044443
-73.9537982,40.665929,308,ROGERS AVENUE,,11225,3041747
-73.9520326,40.6616351,323,LINCOLN ROAD,,11225,3043163
-73.9501814,40.6622296,332,LEFFERTS AVENUE,,11225,3043182
-73.9533315,40.667797,253,ROGERS AVENUE,,11225,3041080
-73.9523536,40.6689181,1178,UNION STREET,,11225,3040716
-73.9473918,40.6662386,363,CROWN STREET,,11213,3041549
-73.9545073,40.665732,307,MONTGOMERY STREET,,11225,3041724
-73.946952,40.7251476,161,NASSAU AVENUE,,11222,3085820
-73.9129435,40.7010006,402,GROVE STREET,,11237,3101196
-73.9183479,40.7071658,96,CYPRESS AVENUE,,11237,3097249
-73.9264675,40.6927584,1128,LAFAYETTE AVENUE,,11221,3099116
-73.9143157,40.6898291,555,EVERGREEN AVENUE,,11221,3103542
-73.9211339,40.7005248,373,KNICKERBOCKER AVENUE,,11237,3098507
-73.8713308,40.6879367,100,AUTUMN AVENUE,,11208,3124034
-73.8693853,40.68838,97,NICHOLS AVENUE,,11208,3124185
-73.8953107,40.6746721,393,LIBERTY AVENUE,,11207,3111994
-73.8939446,40.6727456,287,VERMONT STREET,,11207,3112699
-73.873191,40.6768686,32,DOSCHER STREET,,11208,3127812
-74.0057793,40.6397983,771,53 STREET,,11220,3018530
-74.0125236,40.6462306,5003,4 AVENUE,,11220,3017504
-74.0060574,40.6421138,5011,7 AVENUE,,11220,3017662
-74.0122783,40.6452282,442,51 STREET,,11220,3017856
-74.0156814,40.6427216,422,56 STREET,,11220,3019914
-74.0156259,40.6420528,433,57 STREET,,11220,3019964
-73.9659132,40.6895905,309,WASHINGTON AVENUE,,11205,3069840
-73.936423,40.6872381,515,MONROE STREET,,11221,3055700
-73.9369712,40.6871775,503,MONROE STREET,,11221,3055708
-73.9375412,40.6856054,595,PUTNAM AVENUE,,11221,3056296
-73.9344802,40.6864354,592,MADISON STREET,,11221,3056319
-73.923156,40.6824838,488,DECATUR STREET,,11233,3059131
-73.9266468,40.6865562,143,PATCHEN AVENUE,,11221,3056846
-73.9338663,40.6932836,1024,DEKALB AVENUE,,11221,3053898
-73.9388332,40.6919521,384,KOSCIUSZKO STREET,,11221,3054026
-73.9396376,40.6783293,12,AGATE COURT,,11213,3067811
-73.9664489,40.6967509,31,HALL STREET,,11205,3067983
-73.9709976,40.6763773,203,STERLING PLACE,,11238,3035833
-73.9774991,40.6681991,548,5 STREET,,11215,3031687
-73.9520402,40.6771121,1135,DEAN STREET,,11216,3037039
-73.9272112,40.6705308,1525,ST JOHNS PLACE,,11213,3045264
-73.93606,40.670128,1219,LINCOLN PLACE,,11213,3045434
-73.9321691,40.6679877,1737,UNION STREET,,11213,3046032
-73.9395684,40.674812,959,ST MARKS AVENUE,,11213,3037984
-73.950821,40.6751019,686,ST MARKS AVENUE,,11216,3038121
-73.963068,40.6901462,369,DEKALB AVENUE,,11205,3069451
-73.9494378,40.6972598,527,MARCY AVENUE,,11206,3060644
-73.947134,40.6973017,149,MARTIN L KING PLACE,,11206,3060652
-73.9466419,40.6957862,903,MYRTLE AVENUE,,11206,3060706
-73.9386389,40.6944826,305,HART STREET,,11206,3053515
-73.9620355,40.6853856,355,GRAND AVENUE,,11238,3071242
-73.9569282,40.6867463,358,FRANKLIN AVENUE,,11238,3071275
-73.9599793,40.6845226,17,IRVING PLACE,,11238,3071885
-73.966263,40.6845193,61,GATES AVENUE,,11238,3070748
-73.964499,40.6847414,99,GATES AVENUE,,11238,3070862
-73.9672212,40.694074,154,WASHINGTON AVENUE,,11205,3068367
-73.9294133,40.6922277,1062,LAFAYETTE AVENUE,,11221,3054510
-73.9387385,40.6904415,186,VAN BUREN STREET,,11221,3054540
-73.9350155,40.6908732,300,VAN BUREN STREET,,11221,3054625
-73.9706747,40.6791168,161,ST MARKS AVENUE,A,11238,3034809
-73.9610934,40.6778161,808,BERGEN STREET,,11238,3034939
-73.9638223,40.6794361,785,DEAN STREET,,11238,3034182
-73.9569076,40.6785733,1082,PACIFIC STREET,,11238,3034248
-73.9745111,40.6811456,58,6 AVENUE,,11217,3034304
-73.9652921,40.6794316,48,UNDERHILL AVENUE,,11238,3034474
-73.9222314,40.6840946,710,MACON STREET,,11233,3049560
-73.920632,40.6842763,754,MACON STREET,,11233,3049585
-73.9515193,40.662452,297,LEFFERTS AVENUE,,11225,3042806
-73.976536,40.6710842,484,1 STREET,,11215,3031211
-73.9192281,40.6797451,235,HOWARD AVENUE,,11233,3051283
-73.9166126,40.6790743,206,SARATOGA AVENUE,,11233,3051540
-73.91754,40.6816536,368,CHAUNCEY STREET,,11233,3050671
-73.9411885,40.6727762,1096,PARK PLACE,,11213,3038968
-73.9504221,40.6722324,772,NOSTRAND AVENUE,,11216,3039210
-73.9755945,40.6735557,826,PRESIDENT STREET,,11215,3030719
-73.9742833,40.673078,866,PRESIDENT STREET,,11215,3030738
-73.9720649,40.6716888,853,CARROLL STREET,,11215,3030819
-73.9351194,40.6661722,1588,CARROLL STREET,,11213,3046603
-73.9218842,40.6873988,979,PUTNAM AVENUE,,11221,3049044
-74.0113601,40.6383133,656,58 STREET,,11220,3020837
-74.0186594,40.6448186,265,56 STREET,,11220,3019409
-74.0159289,40.6435235,5512,4 AVENUE,,11220,3019452
-73.9993383,40.6565542,212,30 STREET,,11232,3013385
-73.9794429,40.6592191,169,WINDSOR PLACE,,11215,3033270
-73.9796256,40.6593071,163,WINDSOR PLACE,,11215,3033273
-73.9845269,40.6614087,30,WINDSOR PLACE,,11215,3033400
-73.9424546,40.6685908,1479,UNION STREET,,11213,3040548
-73.9797356,40.6641874,586,11 STREET,,11215,3032493
-73.9836674,40.6641651,413,7 AVENUE,,11215,3032661
-73.9829449,40.6639476,408,13 STREET,,11215,3032676
-73.9236158,40.6736306,1356,ST MARKS AVENUE,,11233,3044345
-73.9231355,40.673607,1370,ST MARKS AVENUE,,11233,3044351
-73.9530876,40.6615541,287,LINCOLN ROAD,,11225,3043175
-73.9409743,40.6677111,1441,PRESIDENT STREET,,11213,3040977
-73.9533616,40.6674765,265,ROGERS AVENUE,,11225,3041073
-73.9465781,40.6685791,1324,UNION STREET,,11213,3040831
-73.9464354,40.6685722,1328,UNION STREET,,11213,3040833
-73.9537146,40.7251346,123,GUERNSEY STREET,,11222,3084822
-73.975749,40.6886379,33,SOUTH ELLIOTT PLACE,,11217,3074662
-73.9435611,40.680187,1443,FULTON STREET,,11216,3066984
-73.9401745,40.6805502,80,DECATUR STREET,,11216,3067214
-73.9551066,40.7024947,155,HEYWARD STREET,,11211,3077719
-73.9566953,40.7004963,33,LYNCH STREET,,11206,3077844
-73.9567844,40.7004473,31,LYNCH STREET,,11206,3077845
-73.872654,40.6846941,196,CRESCENT STREET,,11208,3125382
-73.8723778,40.6849675,3,ADLER PLACE,,11208,3125457
-73.8948973,40.6801944,30,SUNNYSIDE AVENUE,,11207,3107099
-73.9063385,40.6901463,1253,DECATUR STREET,,11207,3105621
-73.8667655,40.6816897,375,GRANT AVENUE,,11208,3127159
-73.8650828,40.6818637,58,FORBELL STREET,,11208,3127244
-73.864667,40.6813688,81,FORBELL STREET,,11208,3127269
-74.000